[{"OBJECT_NAME":"QIANFAN-6","OBJECT_ID":"2024-140F","EPOCH":"2026-03-09T20:58:31.458144","MEAN_MOTION":13.5100238,"ECCENTRICITY":0.00118147,"INCLINATION":88.9713,"RA_OF_ASC_NODE":290.0144,"ARG_OF_PERICENTER":310.0782,"MEAN_ANOMALY":49.9333,"EPHEMERIS_TYPE":0,"CLASSIFICATION_TYPE":"U","NORAD_CAT_ID":60384,"ELEMENT_SET_NO":999,"REV_AT_EPOCH":7926,"BSTAR":9.3119447e-5,"MEAN_MOTION_DOT":7.2e-7,"MEAN_MOTION_DDOT":0},{"OBJECT_NAME":"THOR ABLESTAR R\/B","OBJECT_ID":"1963-049A","EPOCH":"2026-03-09T23:01:17.702688","MEAN_MOTION":13.49994155,"ECCENTRICITY":0.00156084,"INCLINATION":89.918,"RA_OF_ASC_NODE":70.971,"ARG_OF_PERICENTER":190.3505,"MEAN_ANOMALY":227.1761,"EPHEMERIS_TYPE":0,"CLASSIFICATION_TYPE":"U","NORAD_CAT_ID":703,"ELEMENT_SET_NO":999,"REV_AT_EPOCH":6587,"BSTAR":4.3033948e-5,"MEAN_MOTION_DOT":3.7e-7,"MEAN_MOTION_DDOT":0}]
